CYGNUS NG-23            
1 65616U 25208A   26012.95096218  .00007414  00000+0  14125-3 0  9993
2 65616  51.6330 347.9568 0007716  11.8640 348.2529 15.49263082   224
DRAGONFLY               
1 65729U 98067XH  26013.13506623  .00317578  00000+0  10915-2 0  9995
2 65729  51.6219 333.3620 0008095 100.8560 259.3356 15.88194896 18121
1998-067XK              
1 65731U 98067XK  26013.12953434  .00109037  00000+0  76195-3 0  9995
2 65731  51.6285 337.1409 0004915  72.1641 287.9894 15.73432001 18077
RSP-03                  
1 65732U 98067XL  26013.11400560  .00176230  00000+0  93053-3 0  9993
2 65732  51.6260 335.5089 0005971  81.6480 278.5198 15.79550149 18103
GHS-01                  
1 65733U 98067XM  26013.16322957  .00787050  29915-3  14703-2 0  9994
2 65733  51.6224 331.2897 0007876 114.6014 245.5817 16.00347768 18164
YOTSUBA-KULOVER         
1 65941U 98067XN  26012.93705456  .00065012  00000+0  65918-3 0  9990
2 65941  51.6289 342.6172 0004003  95.9259 264.2192 15.64609487 14730
BOTAN                   
1 65942U 98067XP  26012.20999686  .00160384  00000+0  12262-2 0  9992
2 65942  51.6268 344.5014 0004732  88.7806 271.3734 15.71124823 14646
E-KAGAKU-1              
1 65943U 98067XQ  26012.93694919  .00062326  00000+0  63283-3 0  9991
2 65943  51.6308 342.6229 0002599  93.3705 266.7587 15.64596272 14735
HRC MONOBLOCK CAMERA    
1 66052U 98067XR  26013.19936722  .00028990  00000+0  40561-3 0  9996
2 66052  51.6306 344.3689 0001131 355.6118   4.4863 15.56569969 13734
HTV-X1                  
1 66174U 25241A   26012.95096218  .00007414  00000+0  14125-3 0  9990
2 66174  51.6330 347.9568 0007716  11.8640 348.2529 15.49263082   516
SZ-21 MODULE            
1 66515U 25246C   26013.15957274  .00023002  00000+0  23567-3 0  9996
2 66515  41.4740 184.1107 0001746 156.7116 203.3803 15.64420875  9361
SHENZHOU-22             
1 66645U 25272A   26012.83137836  .00017741  00000+0  21248-3 0  9994
2 66645  41.4654 187.7636 0011510 272.9860  86.9661 15.60461132267643
